[{"OBJECT_NAME":"FLOCK 4BE-9","OBJECT_ID":"2024-149AY","EPOCH":"2026-03-03T04:23:54.825216","MEAN_MOTION":15.37308591,"ECCENTRICITY":0.0001684,"INCLINATION":97.3848,"RA_OF_ASC_NODE":145.6792,"ARG_OF_PERICENTER":334.6546,"MEAN_ANOMALY":25.4615,"EPHEMERIS_TYPE":0,"CLASSIFICATION_TYPE":"U","NORAD_CAT_ID":60514,"ELEMENT_SET_NO":999,"REV_AT_EPOCH":8601,"BSTAR":0.00053282,"MEAN_MOTION_DOT":0.00019422,"MEAN_MOTION_DDOT":0},{"OBJECT_NAME":"FLOCK 4BE-8","OBJECT_ID":"2024-149AZ","EPOCH":"2026-03-03T04:38:36.842208","MEAN_MOTION":15.7468803,"ECCENTRICITY":0.0004714,"INCLINATION":97.3688,"RA_OF_ASC_NODE":148.582,"ARG_OF_PERICENTER":237.7206,"MEAN_ANOMALY":122.3602,"EPHEMERIS_TYPE":0,"CLASSIFICATION_TYPE":"U","NORAD_CAT_ID":60515,"ELEMENT_SET_NO":999,"REV_AT_EPOCH":8623,"BSTAR":0.0018593,"MEAN_MOTION_DOT":0.00280467,"MEAN_MOTION_DDOT":0},{"OBJECT_NAME":"FLOCK 4BE-6","OBJECT_ID":"2024-149BA","EPOCH":"2026-03-03T04:52:09.412608","MEAN_MOTION":15.36358812,"ECCENTRICITY":0.0002369,"INCLINATION":97.385,"RA_OF_ASC_NODE":145.2335,"ARG_OF_PERICENTER":323.5846,"MEAN_ANOMALY":36.5236,"EPHEMERIS_TYPE":0,"CLASSIFICATION_TYPE":"U","NORAD_CAT_ID":60516,"ELEMENT_SET_NO":999,"REV_AT_EPOCH":8598,"BSTAR":0.00049791,"MEAN_MOTION_DOT":0.00017594,"MEAN_MOTION_DDOT":0},{"OBJECT_NAME":"FLOCK 4BE-14","OBJECT_ID":"2024-149BB","EPOCH":"2026-03-03T04:56:31.996032","MEAN_MOTION":15.37395784,"ECCENTRICITY":0.0003236,"INCLINATION":97.376,"RA_OF_ASC_NODE":145.3063,"ARG_OF_PERICENTER":319.5079,"MEAN_ANOMALY":40.5924,"EPHEMERIS_TYPE":0,"CLASSIFICATION_TYPE":"U","NORAD_CAT_ID":60517,"ELEMENT_SET_NO":999,"REV_AT_EPOCH":8602,"BSTAR":0.00054889,"MEAN_MOTION_DOT":0.0002007,"MEAN_MOTION_DDOT":0},{"OBJECT_NAME":"FLOCK 4BE-1","OBJECT_ID":"2024-149BC","EPOCH":"2026-03-03T04:37:43.674240","MEAN_MOTION":15.38648311,"ECCENTRICITY":0.0003156,"INCLINATION":97.3835,"RA_OF_ASC_NODE":146.2185,"ARG_OF_PERICENTER":315.7347,"MEAN_ANOMALY":44.3646,"EPHEMERIS_TYPE":0,"CLASSIFICATION_TYPE":"U","NORAD_CAT_ID":60518,"ELEMENT_SET_NO":999,"REV_AT_EPOCH":8605,"BSTAR":0.00061219,"MEAN_MOTION_DOT":0.00023333,"MEAN_MOTION_DDOT":0},{"OBJECT_NAME":"FLOCK 4BE-28","OBJECT_ID":"2024-149BD","EPOCH":"2026-03-03T03:54:17.603136","MEAN_MOTION":15.40637007,"ECCENTRICITY":0.0003556,"INCLINATION":97.3801,"RA_OF_ASC_NODE":146.6057,"ARG_OF_PERICENTER":314.6766,"MEAN_ANOMALY":45.419,"EPHEMERIS_TYPE":0,"CLASSIFICATION_TYPE":"U","NORAD_CAT_ID":60519,"ELEMENT_SET_NO":999,"REV_AT_EPOCH":8609,"BSTAR":0.0006225,"MEAN_MOTION_DOT":0.00025333,"MEAN_MOTION_DDOT":0},{"OBJECT_NAME":"IPERDRONE.0","OBJECT_ID":"2024-149BE","EPOCH":"2026-03-03T03:33:35.359488","MEAN_MOTION":15.53864008,"ECCENTRICITY":0.0002741,"INCLINATION":97.3829,"RA_OF_ASC_NODE":151.2036,"ARG_OF_PERICENTER":260.5203,"MEAN_ANOMALY":99.5741,"EPHEMERIS_TYPE":0,"CLASSIFICATION_TYPE":"U","NORAD_CAT_ID":60520,"ELEMENT_SET_NO":999,"REV_AT_EPOCH":8638,"BSTAR":0.00085557,"MEAN_MOTION_DOT":0.00055241,"MEAN_MOTION_DDOT":0},{"OBJECT_NAME":"TRANSPORTER-11 OBJECT BF","OBJECT_ID":"2024-149BF","EPOCH":"2026-03-03T03:54:41.800320","MEAN_MOTION":15.58838044,"ECCENTRICITY":0.0003076,"INCLINATION":97.3841,"RA_OF_ASC_NODE":152.38,"ARG_OF_PERICENTER":260.3636,"MEAN_ANOMALY":99.7272,"EPHEMERIS_TYPE":0,"CLASSIFICATION_TYPE":"U","NORAD_CAT_ID":60521,"ELEMENT_SET_NO":999,"REV_AT_EPOCH":8645,"BSTAR":0.0010241,"MEAN_MOTION_DOT":0.00079715,"MEAN_MOTION_DDOT":0},{"OBJECT_NAME":"CONNECTA IOT-2","OBJECT_ID":"2024-149BG","EPOCH":"2026-03-03T04:06:24.524352","MEAN_MOTION":15.22926733,"ECCENTRICITY":0.0005903,"INCLINATION":97.3907,"RA_OF_ASC_NODE":141.9769,"ARG_OF_PERICENTER":351.9609,"MEAN_ANOMALY":8.1532,"EPHEMERIS_TYPE":0,"CLASSIFICATION_TYPE":"U","NORAD_CAT_ID":60522,"ELEMENT_SET_NO":999,"REV_AT_EPOCH":8575,"BSTAR":0.00027198,"MEAN_MOTION_DOT":6.315e-5,"MEAN_MOTION_DDOT":0},{"OBJECT_NAME":"PTD-R (TYVAK-0127)","OBJECT_ID":"2024-149BH","EPOCH":"2026-03-03T04:18:04.899168","MEAN_MOTION":15.67636322,"ECCENTRICITY":0.0003882,"INCLINATION":97.379,"RA_OF_ASC_NODE":155.0869,"ARG_OF_PERICENTER":260.2002,"MEAN_ANOMALY":99.8821,"EPHEMERIS_TYPE":0,"CLASSIFICATION_TYPE":"U","NORAD_CAT_ID":60523,"ELEMENT_SET_NO":999,"REV_AT_EPOCH":8665,"BSTAR":0.0012635,"MEAN_MOTION_DOT":0.00139652,"MEAN_MOTION_DDOT":0},{"OBJECT_NAME":"CONNECTA IOT-4","OBJECT_ID":"2024-149BJ","EPOCH":"2026-03-03T04:15:45.694944","MEAN_MOTION":15.38137193,"ECCENTRICITY":0.000485,"INCLINATION":97.3851,"RA_OF_ASC_NODE":145.5944,"ARG_OF_PERICENTER":316.0098,"MEAN_ANOMALY":44.0761,"EPHEMERIS_TYPE":0,"CLASSIFICATION_TYPE":"U","NORAD_CAT_ID":60524,"ELEMENT_SET_NO":999,"REV_AT_EPOCH":8601,"BSTAR":0.00054292,"MEAN_MOTION_DOT":0.00020339,"MEAN_MOTION_DDOT":0},{"OBJECT_NAME":"ORESAT0.5","OBJECT_ID":"2024-149BK","EPOCH":"2026-03-03T03:42:14.272704","MEAN_MOTION":15.40801544,"ECCENTRICITY":0.0004618,"INCLINATION":97.3774,"RA_OF_ASC_NODE":146.851,"ARG_OF_PERICENTER":304.7969,"MEAN_ANOMALY":55.2843,"EPHEMERIS_TYPE":0,"CLASSIFICATION_TYPE":"U","NORAD_CAT_ID":60525,"ELEMENT_SET_NO":999,"REV_AT_EPOCH":8612,"BSTAR":0.00058782,"MEAN_MOTION_DOT":0.00024047,"MEAN_MOTION_DDOT":0},{"OBJECT_NAME":"DEIMOS","OBJECT_ID":"2024-149BL","EPOCH":"2026-03-02T19:25:39.714816","MEAN_MOTION":15.40132619,"ECCENTRICITY":0.00046016,"INCLINATION":97.3835,"RA_OF_ASC_NODE":146.6818,"ARG_OF_PERICENTER":314.7331,"MEAN_ANOMALY":45.354,"EPHEMERIS_TYPE":0,"CLASSIFICATION_TYPE":"U","NORAD_CAT_ID":60526,"ELEMENT_SET_NO":999,"REV_AT_EPOCH":8605,"BSTAR":0.00056146799,"MEAN_MOTION_DOT":0.00022459,"MEAN_MOTION_DDOT":0},{"OBJECT_NAME":"CUAVA-2","OBJECT_ID":"2024-149BM","EPOCH":"2026-03-03T04:55:39.480384","MEAN_MOTION":15.33389905,"ECCENTRICITY":0.0005914,"INCLINATION":97.3789,"RA_OF_ASC_NODE":143.7316,"ARG_OF_PERICENTER":318.8266,"MEAN_ANOMALY":41.253,"EPHEMERIS_TYPE":0,"CLASSIFICATION_TYPE":"U","NORAD_CAT_ID":60527,"ELEMENT_SET_NO":999,"REV_AT_EPOCH":8591,"BSTAR":0.00047103,"MEAN_MOTION_DOT":0.00015142,"MEAN_MOTION_DDOT":0},{"OBJECT_NAME":"ERNST","OBJECT_ID":"2024-149BN","EPOCH":"2026-03-03T04:00:29.201760","MEAN_MOTION":15.36116607,"ECCENTRICITY":0.0005163,"INCLINATION":97.3864,"RA_OF_ASC_NODE":145.3133,"ARG_OF_PERICENTER":324.7245,"MEAN_ANOMALY":35.3656,"EPHEMERIS_TYPE":0,"CLASSIFICATION_TYPE":"U","NORAD_CAT_ID":60528,"ELEMENT_SET_NO":999,"REV_AT_EPOCH":8598,"BSTAR":0.00050881,"MEAN_MOTION_DOT":0.00017848,"MEAN_MOTION_DDOT":0},{"OBJECT_NAME":"TORO","OBJECT_ID":"2024-149BQ","EPOCH":"2026-03-03T04:09:28.032768","MEAN_MOTION":14.95977125,"ECCENTRICITY":0.0001522,"INCLINATION":97.6874,"RA_OF_ASC_NODE":138.8206,"ARG_OF_PERICENTER":83.6085,"MEAN_ANOMALY":276.5309,"EPHEMERIS_TYPE":0,"CLASSIFICATION_TYPE":"U","NORAD_CAT_ID":60530,"ELEMENT_SET_NO":999,"REV_AT_EPOCH":8410,"BSTAR":0.00024146,"MEAN_MOTION_DOT":2.65e-5,"MEAN_MOTION_DDOT":0},{"OBJECT_NAME":"HYPSO-2","OBJECT_ID":"2024-149BR","EPOCH":"2026-03-03T03:55:28.554816","MEAN_MOTION":14.98196085,"ECCENTRICITY":0.0001679,"INCLINATION":97.6902,"RA_OF_ASC_NODE":139.9829,"ARG_OF_PERICENTER":83.7633,"MEAN_ANOMALY":276.3781,"EPHEMERIS_TYPE":0,"CLASSIFICATION_TYPE":"U","NORAD_CAT_ID":60531,"ELEMENT_SET_NO":999,"REV_AT_EPOCH":8417,"BSTAR":0.00039835,"MEAN_MOTION_DOT":4.67e-5,"MEAN_MOTION_DDOT":0}]
