FLOCK 4BE-9             
1 60514U 24149AY  26062.18327344  .00019422  00000+0  53282-3 0  9994
2 60514  97.3848 145.6792 0001684 334.6546  25.4615 15.37308591 86011
FLOCK 4BE-8             
1 60515U 24149AZ  26062.19348197  .00280467  00000+0  18593-2 0  9999
2 60515  97.3688 148.5820 0004714 237.7206 122.3602 15.74688030 86238
FLOCK 4BE-6             
1 60516U 24149BA  26062.20288672  .00017594  00000+0  49791-3 0  9997
2 60516  97.3850 145.2335 0002369 323.5846  36.5236 15.36358812 85983
FLOCK 4BE-14            
1 60517U 24149BB  26062.20592588  .00020070  00000+0  54889-3 0  9999
2 60517  97.3760 145.3063 0003236 319.5079  40.5924 15.37395784 86025
FLOCK 4BE-1             
1 60518U 24149BC  26062.19286660  .00023333  00000+0  61219-3 0  9999
2 60518  97.3835 146.2185 0003156 315.7347  44.3646 15.38648311 86055
FLOCK 4BE-28            
1 60519U 24149BD  26062.16270374  .00025333  00000+0  62250-3 0  9990
2 60519  97.3801 146.6057 0003556 314.6766  45.4190 15.40637007 86091
IPERDRONE.0             
1 60520U 24149BE  26062.14832592  .00055241  00000+0  85557-3 0  9992
2 60520  97.3829 151.2036 0002741 260.5203  99.5741 15.53864008 86383
TRANSPORTER-11 OBJECT BF
1 60521U 24149BF  26062.16298380  .00079715  00000+0  10241-2 0  9995
2 60521  97.3841 152.3800 0003076 260.3636  99.7272 15.58838044 86454
CONNECTA IOT-2          
1 60522U 24149BG  26062.17111718  .00006315  00000+0  27198-3 0  9992
2 60522  97.3907 141.9769 0005903 351.9609   8.1532 15.22926733 85753
PTD-R (TYVAK-0127)      
1 60523U 24149BH  26062.17922337  .00139652  00000+0  12635-2 0  9990
2 60523  97.3790 155.0869 0003882 260.2002  99.8821 15.67636322 86653
CONNECTA IOT-4          
1 60524U 24149BJ  26062.17761221  .00020339  00000+0  54292-3 0  9991
2 60524  97.3851 145.5944 0004850 316.0098  44.0761 15.38137193 86016
ORESAT0.5               
1 60525U 24149BK  26062.15433186  .00024047  00000+0  58782-3 0  9994
2 60525  97.3774 146.8510 0004618 304.7969  55.2843 15.40801544 86125
DEIMOS                  
1 60526U 24149BL  26061.80948744  .00022459  00000+0  56147-3 0  9995
2 60526  97.3835 146.6818 0004601 314.7331  45.3540 15.40132619 86055
CUAVA-2                 
1 60527U 24149BM  26062.20531806  .00015142  00000+0  47103-3 0  9991
2 60527  97.3789 143.7316 0005914 318.8266  41.2530 15.33389905 85917
ERNST                   
1 60528U 24149BN  26062.16700465  .00017848  00000+0  50881-3 0  9998
2 60528  97.3864 145.3133 0005163 324.7245  35.3656 15.36116607 85986
TORO                    
1 60530U 24149BQ  26062.17324112  .00002650  00000+0  24146-3 0  9993
2 60530  97.6874 138.8206 0001522  83.6085 276.5309 14.95977125 84100
HYPSO-2                 
1 60531U 24149BR  26062.16352494  .00004670  00000+0  39835-3 0  9992
2 60531  97.6902 139.9829 0001679  83.7633 276.3781 14.98196085 84179
